GLOBALSTAR M075 [+]     
1 37192U 10054E   23280.27062775 -.00000078  00000+0  14458-3 0  9993
2 37192  51.9934 266.0037 0000561  53.3182  48.4874 12.62261953598210
GLOBALSTAR M073 [+]     
1 37193U 10054F   23280.44440899 -.00000083  00000+0  11423-3 0  9995
2 37193  52.0049 178.8210 0000792  71.0340 101.2492 12.62268182599746
GLOBALSTAR M083 [+]     
1 37739U 11033A   23279.88771562 -.00000082  00000+0  12202-3 0  9994
2 37739  51.9837 130.0911 0000615  72.1536  30.5407 12.62269945568649
GLOBALSTAR M088 [+]     
1 37740U 11033B   23279.60417280 -.00000095  00000+0  50966-4 0  9994
2 37740  51.9754  36.9662 0000537  79.0915 293.8220 12.62265942564158
GLOBALSTAR M091 [+]     
1 37741U 11033C   23280.50918964 -.00000080  00000+0  13074-3 0  9993
2 37741  52.0025 356.6612 0000393  64.4298  42.3216 12.62266839565318
GLOBALSTAR M085 [+]     
1 37742U 11033D   23279.79744508 -.00000079  00000+0  13645-3 0  9996
2 37742  51.9871 310.4156 0000314  51.5917 120.1112 12.62263460565479
GLOBALSTAR M081 [+]     
1 37743U 11033E   23279.82377139 -.00000074  00000+0  16665-3 0  9993
2 37743  51.9963 312.7405 0000525  49.1840 122.0510 12.62265093565620
GLOBALSTAR M089 [+]     
1 37744U 11033F   23280.33346869 -.00000065  00000+0  21855-3 0  9995
2 37744  51.9916 265.5316 0000672  82.1799  65.9679 12.62267912566789
